[{"city":"HàNội","postalcode":"100000"},{"city":"ThànhphốHồChíMinh","postalcode":"700000"},{"city":"AnGiang","postalcode":"880000"},{"city":"BàRịaVũngTàu","postalcode":"790000"},{"city":"BạcLiêu","postalcode":"260000"},{"city":"BắcKạn","postalcode":"960000"},{"city":"BắcGiang","postalcode":"220000"},{"city":"BắcNinh","postalcode":"790000"},{"city":"BếnTre","postalcode":"930000"},{"city":"BìnhDương","postalcode":"590000"},{"city":"BìnhĐịnh","postalcode":"820000"},{"city":"BìnhPhước","postalcode":"830000"},{"city":"BìnhThuận","postalcode":"800000"},{"city":"CàuMau","postalcode":"970000"},{"city":"CaoBằng","postalcode":"270000"},{"city":"CầnThơ","postalcode":"900000"},{"city":"ĐàNẵng","postalcode":"550000"},{"city":"ĐiệnBiên","postalcode":"380000"},{"city":"ĐắkLắk","postalcode":"630000"},{"city":"ĐắcNông","postalcode":"640000"},{"city":"ĐồngNai","postalcode":"810000"},{"city":"ĐồngTháp","postalcode":"870000"},{"city":"GiaLai","postalcode":"600000"},{"city":"HàGiang","postalcode":"310000"},{"city":"HàNam","postalcode":"400000"},{"city":"HàTĩnh","postalcode":"480000"},{"city":"HảiDương","postalcode":"170000"},{"city":"HảiPhòng","postalcode":"180000"},{"city":"HậuGiang","postalcode":"910000"},{"city":"HòaBình","postalcode":"350000"},{"city":"HưngYên","postalcode":"160000"},{"city":"KhánhHoà","postalcode":"650000"},{"city":"KiênGiang","postalcode":"920000"},{"city":"KonTum","postalcode":"580000"},{"city":"LaiChâu","postalcode":"390000"},{"city":"LạngSơn","postalcode":"240000"},{"city":"LàoCai","postalcode":"330000"},{"city":"LâmĐồng","postalcode":"670000"},{"city":"LongAn","postalcode":"850000"},{"city":"NamĐịnh","postalcode":"420000"},{"city":"NghệAn","postalcode":"460000"},{"city":"NinhBình","postalcode":"430000"},{"city":"NinhThuận","postalcode":"660000"},{"city":"PhúThọ","postalcode":"290000"},{"city":"PhúYên","postalcode":"620000"},{"city":"QuảngBình","postalcode":"510000"},{"city":"QuảngNam","postalcode":"560000"},{"city":"QuảngNgãi","postalcode":"570000"},{"city":"QuảngNinh","postalcode":"200000"},{"city":"QuảngTrị","postalcode":"520000"},{"city":"SócTrăng","postalcode":"950000"},{"city":"SơnLa","postalcode":"360000"},{"city":"TâyNinh","postalcode":"840000"},{"city":"TháiBình","postalcode":"410000"},{"city":"TháiNguyên","postalcode":"250000"},{"city":"ThanhHoá","postalcode":"440000"},{"city":"ThừaThiênHuế","postalcode":"530000"},{"city":"TiềnGiang","postalcode":"860000"},{"city":"TràVinh","postalcode":"940000"},{"city":"TuyênQuang","postalcode":"300000"},{"city":"VĩnhLong","postalcode":"890000"},{"city":"VĩnhPhúc","postalcode":"280000"},{"city":"YênBái","postalcode":"320000"}]